IDEFIX & ARIANE 42P R/B 
1 27422U 02021B   26064.72018144  .00000417  00000+0  17513-3 0  9998
2 27422  98.5866   3.3740 0011343 194.0725 166.0144 14.31022919243450
AQUA                    
1 27424U 02022A   26064.79330044  .00001558  00000+0  32073-3 0  9999
2 27424  98.4169  32.0874 0000606  63.2661  49.8750 14.61966241268164
CZ-4B R/B               
1 27432U 02024C   26064.69721843  .00000075  00000+0  61499-4 0  9998
2 27432  98.8847 118.1239 0050671  35.4602  76.7641 14.14546934228675
MIDORI II (ADEOS-II)    
1 27597U 02056A   26064.60341667  .00000445  00000+0  19287-3 0  9996
2 27597  98.7764  23.0529 0001739  48.3112 311.8218 14.29281477209711
H-2A R/B                
1 27601U 02056E   26064.68200080  .00000384  00000+0  14903-3 0  9995
2 27601  98.3197  25.2003 0070259 172.5597   3.6810 14.33757734213532
CZ-4B R/B               
1 28059U 03049C   26064.60128381  .00000578  00000+0  14424-3 0  9994
2 28059  98.6876  59.3457 0047109 243.6440 115.9914 14.55015808186009
CZ-2C R/B               
1 28222U 04012C   26064.70687254  .00060471  00000+0  63753-3 0  9994
2 28222  97.7239 129.6237 0013260 325.7396  34.3005 15.63957569203659
SL-16 R/B               
1 28353U 04021B   26064.70924822 -.00000193  00000+0 -75750-4 0  9992
2 28353  70.9992 240.8460 0003813  17.1566 342.9684 14.14599191122278
CZ-4B R/B               
1 28415U 04035C   26064.65541867  .00009952  00000+0  35106-3 0  9994
2 28415  97.3499  98.9460 0031407 346.2281  13.8099 15.28976588179297
CZ-2C R/B               
1 28480U 04046B   26064.69914945  .00000160  00000+0  74447-4 0  9997
2 28480  98.1986 339.9313 0139651 166.2060 194.3000 14.26990485107937
ARIANE 5 R/B            
1 28499U 04049H   26064.45582592  .00001132  00000+0  13087-3 0  9995
2 28499  98.2618 232.7545 0084239   5.6646 354.5500 14.85257082145160
CZ-2D R/B               
1 28738U 05024B   26064.60392122  .00045815  00000+0  57191-3 0  9990
2 28738  97.3595  79.6011 0006429  57.0193 303.1681 15.59717553139146
